{"origin":"https://www.city-yuzawa.jp/uploaded/attachment/18212.xlsx","source":"Data by 湯沢市 - 教育委員会所管施設一覧 / クリエイティブ・コモンズ 表示 4.1日本","header":{"category":"区分","name":"施設名","zipcode":"郵便番号","address":"所在地","tel":"電話番号","note":"備考"},"data":[{"category":"教育研究所","name":"教育研究所","zipcode":"012-8501","address":"湯沢市佐竹町1番1号","tel":"0183-73-2162","note":""},{"category":"小学校","name":"湯沢東小学校","zipcode":"012-0803","address":"湯沢市杉沢新所字八斗場33番地","tel":"0183-72-5125","note":""},{"category":"小学校","name":"湯沢西小学校","zipcode":"012-0043","address":"湯沢市字万石26番地","tel":"0183-72-5150","note":""},{"category":"小学校","name":"山田小学校","zipcode":"012-0055","address":"湯沢市山田字土生原52番地","tel":"0183-73-3016","note":""},{"category":"小学校","name":"稲川小学校","zipcode":"012-0105","address":"湯沢市川連町字道下86番地","tel":"0183-42-2501","note":""},{"category":"小学校","name":"雄勝小学校","zipcode":"019-0204","address":"湯沢市横堀字板橋5番地","tel":"0183-52-5515","note":""},{"category":"小学校","name":"皆瀬小学校","zipcode":"012-0183","address":"湯沢市皆瀬字下菅生27番地","tel":"0183-58-4080","note":""},{"category":"中学校","name":"湯沢北中学校","zipcode":"012-0803","address":"湯沢市杉沢新所字八斗場33番地","tel":"0183-72-5127","note":""},{"category":"中学校","name":"山田中学校","zipcode":"012-0055","address":"湯沢市山田字下舘10番地","tel":"0183-73-3017","note":""},{"category":"中学校","name":"湯沢南中学校","zipcode":"012-0867","address":"湯沢市南台6番1号","tel":"0183-73-5145","note":""},{"category":"中学校","name":"稲川中学校","zipcode":"012-0106","address":"湯沢市三梨町字間明田140番地","tel":"0183-42-2160","note":""},{"category":"中学校","name":"雄勝中学校","zipcode":"019-0204","address":"湯沢市横堀字板橋5番地","tel":"0183-52-2375","note":""},{"category":"中学校","name":"皆瀬中学校","zipcode":"012-0183","address":"湯沢市皆瀬字下菅生24番地1","tel":"0183-46-2003","note":""},{"category":"生涯学習センター（公民館）","name":"湯沢生涯学習センター（湯沢公民館）","zipcode":"012-0824","address":"湯沢市佐竹町4番5号","tel":"0183-73-1132","note":""},{"category":"生涯学習センター（公民館）","name":"稲川生涯学習センター（稲川公民館）","zipcode":"012-0105","address":"湯沢市川連町字上平城120番地","tel":"0183-42-5816","note":""},{"category":"生涯学習センター（公民館）","name":"雄勝生涯学習センター（雄勝公民館）","zipcode":"019-0204","address":"湯沢市横堀字白銀町49番地1","tel":"0183-52-2113","note":""},{"category":"生涯学習センター（公民館）","name":"皆瀬生涯学習センター（皆瀬公民館）","zipcode":"012-0183","address":"湯沢市皆瀬字沢梨台106番地","tel":"0183-46-2033","note":""},{"category":"文化会館","name":"湯沢文化会館","zipcode":"012-0037","address":"湯沢市字沖鶴103番地1","tel":"0183-72-2121","note":""},{"category":"文化会館","name":"雄勝文化会館","zipcode":"019-0204","address":"湯沢市横堀字白銀町49番地1","tel":"0183-52-2112","note":""},{"category":"図書館","name":"湯沢図書館","zipcode":"012-0842","address":"湯沢市字内舘町27番地","tel":"0183-73-3040","note":""},{"category":"図書館","name":"雄勝図書館","zipcode":"019-0204","address":"湯沢市横堀字白銀町49番地1","tel":"0183-52-5387","note":""},{"category":"勤労青少年ホーム","name":"湯沢勤労青少年ホーム","zipcode":"012-0824","address":"湯沢市佐竹町4番52号","tel":"0183-73-1132","note":"問い合わせ先：湯沢生涯学習センター"},{"category":"その他社会教育関係施設","name":"文化交流センター","zipcode":"012-0037","address":"湯沢市字沖鶴69番地5","tel":"0183-73-9690","note":""},{"category":"その他社会教育関係施設","name":"南部文化交流センター","zipcode":"012-0857","address":"湯沢市千石町二丁目4番8号","tel":"0183-73-5396","note":""},{"category":"その他社会教育関係施設","name":"稲川カルチャーセンター","zipcode":"012-0105","address":"湯沢市川連町字大関下6番地","tel":"0183-78-5557","note":""},{"category":"その他社会教育関係施設","name":"稲川農村環境改善センター","zipcode":"012-0105","address":"湯沢市川連町字上平城120番地","tel":"0183-42-5816","note":"問い合わせ先：稲川生涯学習センター"},{"category":"その他社会教育関係施設","name":"院内銀山異人館","zipcode":"019-0111","address":"湯沢市上院内字小沢115番地","tel":"0183-52-5143","note":""},{"category":"その他社会教育関係施設","name":"郷土学習資料展示施設","zipcode":"019-0404","address":"湯沢市高松字上地6番地2","tel":"0183-55-8193","note":"問い合わせ先：生涯学習課"},{"category":"その他社会教育関係施設","name":"雄勝郡会議事堂記念館","zipcode":"012-0825","address":"湯沢市北荒町2番20号","tel":"0183-55-8193","note":"問い合わせ先：生涯学習課"},{"category":"体育施設","name":"総合体育館","zipcode":"012-0037","address":"湯沢市字沖鶴140番地","tel":"0183-72-6500","note":""},{"category":"体育施設","name":"体育センター","zipcode":"012-0857","address":"湯沢市千石町二丁目1番57号","tel":"0183-72-3979","note":""},{"category":"体育施設","name":"稲川体育館","zipcode":"012-0105","address":"湯沢市川連町字上平城120番地","tel":"0183-42-5816","note":"問い合わせ先：稲川生涯学習センター"},{"category":"体育施設","name":"雄勝スポーツセンター","zipcode":"019-0321","address":"湯沢市秋ノ宮字中島365番地","tel":"0183-55-2277","note":""},{"category":"体育施設","name":"皆瀬体育館","zipcode":"012-0183","address":"湯沢市皆瀬字沢梨台107番地1","tel":"0183-46-2033","note":"問い合わせ先：皆瀬生涯学習センター"},{"category":"体育施設","name":"健康ドーム","zipcode":"012-0037","address":"湯沢市字沖鶴168番地","tel":"0183-72-6500","note":"問い合わせ先：総合体育館"},{"category":"体育施設","name":"稲川陸上競技場","zipcode":"012-0106","address":"湯沢市三梨町字間明田140番地","tel":"0183-55-8286","note":"問い合わせ先：生涯学習課"},{"category":"体育施設","name":"ヘルシーパーク","zipcode":"012-0037","address":"湯沢市字沖鶴110番地","tel":"0183-72-6500","note":"問い合わせ先：総合体育館"},{"category":"体育施設","name":"稲川交流スポーツエリア","zipcode":"012-0105","address":"湯沢市川連町字大舘中野87番地1","tel":"0183-42-5060","note":""},{"category":"体育施設","name":"湯沢武道館","zipcode":"012-0857","address":"湯沢市千石町二丁目1番59号","tel":"0183-72-3979","note":"問い合わせ先：体育センター"},{"category":"体育施設","name":"湯沢弓道場","zipcode":"012-0857","address":"湯沢市千石町二丁目3番25号","tel":"0183-72-3979","note":"問い合わせ先：体育センター"},{"category":"野球場","name":"稲川野球場","zipcode":"012-0106","address":"湯沢市三梨町字間明田140番地","tel":"0183-42-5816","note":"問い合わせ先：稲川生涯学習センター"},{"category":"野球場","name":"雄勝野球場","zipcode":"019-0204","address":"湯沢市横堀字六郎川原52番地","tel":"0183-52-2113","note":"問い合わせ先：雄勝生涯学習センター"},{"category":"野球場","name":"皆瀬野球場","zipcode":"012-0183","address":"湯沢市皆瀬字上小保内3番地","tel":"0183-46-2033","note":"問い合わせ先：皆瀬生涯学習センター"},{"category":"スキー場","name":"稲川スキー場","zipcode":"012-0104","address":"湯沢市駒形町字八面深沢地内","tel":"0183-42-4185","note":""},{"category":"プール","name":"Ｂ＆Ｇ海洋センター","zipcode":"012-0037","address":"湯沢市字沖鶴171番地","tel":"0183-72-6555","note":""},{"category":"グラウンド","name":"河川敷運動広場松ノ木グラウンド","zipcode":"","address":"湯沢市山田字下新山沖地内","tel":"0183-72-6500","note":"問い合わせ先：総合体育館"},{"category":"","name":"","zipcode":"","address":"","tel":"","note":""}]}