{"origin":"https://www.city-yuzawa.jp/uploaded/attachment/17995.xlsx","source":"Data by 湯沢市 - 令和4年度　個別予防接種協力医療機関 / クリエイティブ・コモンズ 表示 4.1日本","header":{"no":"№","name":"医療機関名","zipcode":"郵便番号","address":"所在地","tel":"電話番号","yonshu":"四種","sanshu":"三種","nishu":"二種","fukatsupori":"不活ﾎﾟﾘ","mr":"MR","matan":"麻単","futan":"風単","nihonnouen":"日本脳炎","bcg":"BCG","hib":"Hib","shohaikyu":"小肺球","hpv":"HPV","suito":"水痘","bkan":"B肝","rota":"ロタ","infu":"ｲﾝﾌ","kohaien":"高肺炎","note":"備考"},"data":[{"no":1,"name":"こはま泌尿器科クリニック","zipcode":"013-0001","address":"横手市杉沢字中杉沢519-1","tel":"0182-35-2666","yonshu":null,"sanshu":null,"nishu":null,"fukatsupori":null,"mr":"○","matan":null,"futan":null,"nihonnouen":null,"bcg":null,"hib":null,"shohaikyu":null,"hpv":"○","suito":null,"bkan":"○","rota":null,"infu":"○","kohaien":"○","note":""},{"no":2,"name":"しおたこどもクリニック","zipcode":"013-0001","address":"横手市杉沢字中杉沢519-2","tel":"0182-35-5005","yonshu":"○","sanshu":"○","nishu":"○","fukatsupori":"○","mr":"○","matan":"○","futan":"○","nihonnouen":"○","bcg":"○","hib":"○","shohaikyu":"○","hpv":"○","suito":"○","bkan":"○","rota":"○","infu":"○","kohaien":"○","note":""},{"no":3,"name":"介護老人施設　やすらぎの苑","zipcode":"013-0001","address":"横手市杉沢字中杉沢400","tel":"0182-33-4001","yonshu":null,"sanshu":null,"nishu":null,"fukatsupori":null,"mr":null,"matan":null,"futan":null,"nihonnouen":null,"bcg":null,"hib":null,"shohaikyu":null,"hpv":null,"suito":null,"bkan":null,"rota":null,"infu":"○","kohaien":"○","note":""},{"no":4,"name":"熊谷医院","zipcode":"013-0025","address":"横手市寿町2-8","tel":"0182-32-2163","yonshu":null,"sanshu":null,"nishu":null,"fukatsupori":null,"mr":"○","matan":"○","futan":"○","nihonnouen":"○","bcg":null,"hib":null,"shohaikyu":null,"hpv":"○","suito":"○","bkan":null,"rota":null,"infu":"○","kohaien":"○","note":""},{"no":5,"name":"針生皮膚科内科医院","zipcode":"013-0027","address":"横手市平城町7-8","tel":"0182-32-9461","yonshu":"○","sanshu":null,"nishu":"○","fukatsupori":null,"mr":"○","matan":"○","futan":"○","nihonnouen":"○","bcg":"○","hib":"○","shohaikyu":"○","hpv":"○","suito":"○","bkan":"○","rota":"○","infu":"○","kohaien":"○","note":""},{"no":6,"name":"針生皮膚科内科医院","zipcode":"013-0027","address":"横手市平城町7-8","tel":"0182-32-9461","yonshu":"○","sanshu":null,"nishu":"○","fukatsupori":null,"mr":"○","matan":"○","futan":"○","nihonnouen":"○","bcg":"○","hib":"○","shohaikyu":"○","hpv":"○","suito":"○","bkan":"○","rota":"○","infu":"○","kohaien":"○","note":""},{"no":7,"name":"福嶋内科医院","zipcode":"013-0027","address":"横手市平城町3の34","tel":"0182-33-9311","yonshu":null,"sanshu":null,"nishu":null,"fukatsupori":null,"mr":null,"matan":null,"futan":null,"nihonnouen":null,"bcg":null,"hib":null,"shohaikyu":null,"hpv":null,"suito":null,"bkan":null,"rota":null,"infu":"○","kohaien":"○","note":""},{"no":8,"name":"横手胃腸科クリニック","zipcode":"013-0032","address":"横手市清川町13の31","tel":"0182-35-2222","yonshu":null,"sanshu":null,"nishu":null,"fukatsupori":null,"mr":"○","matan":"○","futan":"○","nihonnouen":"○","bcg":null,"hib":null,"shohaikyu":null,"hpv":null,"suito":"○","bkan":null,"rota":null,"infu":"○","kohaien":"○","note":""},{"no":9,"name":"石橋小児科医院","zipcode":"013-0033","address":"横手市旭川1丁目5-5","tel":"0182-32-6800","yonshu":"○","sanshu":"○","nishu":"○","fukatsupori":"○","mr":"○","matan":"○","futan":"○","nihonnouen":"○","bcg":"○","hib":"○","shohaikyu":"○","hpv":"○","suito":"○","bkan":"○","rota":"○","infu":"○","kohaien":"○","note":""},{"no":10,"name":"あべ内科クリニック","zipcode":"013-0033","address":"横手市旭川3-3-34","tel":"0182-33-1202","yonshu":null,"sanshu":null,"nishu":"○","fukatsupori":null,"mr":"○","matan":"○","futan":"○","nihonnouen":"○","bcg":null,"hib":null,"shohaikyu":null,"hpv":"○","suito":"○","bkan":"○","rota":null,"infu":"○","kohaien":"○","note":""},{"no":11,"name":"すずき皮膚科クリニック","zipcode":"013-0036","address":"横手市駅前町10-10","tel":"0182-36-4112","yonshu":"○","sanshu":"○","nishu":"○","fukatsupori":"○","mr":"○","matan":"○","futan":"○","nihonnouen":null,"bcg":null,"hib":"○","shohaikyu":"○","hpv":"○","suito":"○","bkan":null,"rota":null,"infu":"○","kohaien":"○","note":""},{"no":12,"name":"高橋耳鼻咽喉科眼科クリニック","zipcode":"013-0037","address":"横手市前郷二番町4の25","tel":"0182-32-2275","yonshu":null,"sanshu":null,"nishu":null,"fukatsupori":null,"mr":null,"matan":null,"futan":"○","nihonnouen":"○","bcg":null,"hib":"○","shohaikyu":"○","hpv":null,"suito":"○","bkan":"○","rota":null,"infu":"○","kohaien":"○","note":""},{"no":13,"name":"細谷内科医院","zipcode":"013-0037","address":"横手市前郷二番町8の18","tel":"0182-36-2221","yonshu":null,"sanshu":null,"nishu":null,"fukatsupori":null,"mr":null,"matan":null,"futan":"○","nihonnouen":null,"bcg":null,"hib":null,"shohaikyu":null,"hpv":"○","suito":null,"bkan":null,"rota":null,"infu":"○","kohaien":"○","note":""},{"no":14,"name":"八木橋医院","zipcode":"013-0038","address":"横手市前郷一番町11-7","tel":"0182-32-0682","yonshu":null,"sanshu":null,"nishu":null,"fukatsupori":null,"mr":null,"matan":null,"futan":null,"nihonnouen":null,"bcg":null,"hib":null,"shohaikyu":null,"hpv":null,"suito":null,"bkan":null,"rota":null,"infu":"○","kohaien":"○","note":""},{"no":15,"name":"あさのクリニック","zipcode":"013-0042","address":"横手市前郷字八ツ口1番","tel":"0182-32-7600","yonshu":null,"sanshu":null,"nishu":"○","fukatsupori":null,"mr":"○","matan":"○","futan":"○","nihonnouen":"※○","bcg":null,"hib":"※○","shohaikyu":"※○","hpv":null,"suito":"※○","bkan":"※○","rota":null,"infu":"○","kohaien":"○","note":"※１歳以上　B肝は２回目１歳以上　要予約"},{"no":16,"name":"高橋内科医院","zipcode":"013-0044","address":"横手市ブンナ沢80-4","tel":"0182-32-5662","yonshu":null,"sanshu":null,"nishu":null,"fukatsupori":null,"mr":null,"matan":null,"futan":null,"nihonnouen":null,"bcg":null,"hib":null,"shohaikyu":null,"hpv":null,"suito":null,"bkan":null,"rota":null,"infu":"○","kohaien":"○","note":""},{"no":17,"name":"復古堂医院","zipcode":"013-0055","address":"横手市朝日が丘3丁目1-45","tel":"0182-33-6021","yonshu":"○","sanshu":null,"nishu":"○","fukatsupori":null,"mr":"○","matan":"○","futan":"○","nihonnouen":"○","bcg":"○","hib":"○","shohaikyu":"○","hpv":null,"suito":"○","bkan":"○","rota":null,"infu":"○","kohaien":"○","note":""},{"no":18,"name":"いそべレディスクリニック","zipcode":"013-0060","address":"横手市条里1丁目1-1-21","tel":"0182-35-5777","yonshu":null,"sanshu":null,"nishu":null,"fukatsupori":null,"mr":"○","matan":null,"futan":"○","nihonnouen":null,"bcg":null,"hib":null,"shohaikyu":null,"hpv":"○","suito":null,"bkan":"○","rota":null,"infu":"○","kohaien":"○","note":""},{"no":19,"name":"おぎわら内科診療所","zipcode":"013-0060","address":"横手市条里1丁目15-2","tel":"0182-23-5301","yonshu":null,"sanshu":null,"nishu":"○","fukatsupori":null,"mr":"○","matan":"○","futan":"○","nihonnouen":"○","bcg":null,"hib":null,"shohaikyu":null,"hpv":"○","suito":null,"bkan":null,"rota":null,"infu":"○","kohaien":"○","note":"3歳以上のみ"},{"no":20,"name":"条里プラタナス耳鼻科","zipcode":"013-0060","address":"横手市条里1丁目10-17","tel":"0182-38-8882","yonshu":null,"sanshu":null,"nishu":null,"fukatsupori":null,"mr":null,"matan":null,"futan":"○","nihonnouen":null,"bcg":null,"hib":"○","shohaikyu":"○","hpv":null,"suito":"○","bkan":null,"rota":null,"infu":"○","kohaien":"○","note":""},{"no":21,"name":"湊クリニック","zipcode":"013-0060","address":"横手市条里三丁目1-25","tel":"0182-35-1008","yonshu":null,"sanshu":null,"nishu":null,"fukatsupori":null,"mr":null,"matan":null,"futan":null,"nihonnouen":null,"bcg":null,"hib":null,"shohaikyu":null,"hpv":null,"suito":null,"bkan":null,"rota":null,"infu":"○","kohaien":"○","note":""},{"no":22,"name":"渡辺内科循環器科医院","zipcode":"013-0060","address":"横手市条里三丁目3-10","tel":"0182-35-7020","yonshu":"○","sanshu":"○","nishu":"○","fukatsupori":null,"mr":"○","matan":"○","futan":"○","nihonnouen":"○","bcg":null,"hib":"○","shohaikyu":"○","hpv":"○","suito":"○","bkan":"○","rota":null,"infu":"○","kohaien":"○","note":""},{"no":23,"name":"小田嶋まさる内科","zipcode":"013-0061","address":"横手市横手町字大関越174","tel":"0182-38-8951","yonshu":null,"sanshu":null,"nishu":null,"fukatsupori":null,"mr":"○","matan":"○","futan":"○","nihonnouen":"○","bcg":null,"hib":null,"shohaikyu":null,"hpv":null,"suito":"○","bkan":"○","rota":null,"infu":"○","kohaien":"○","note":"水痘：中学生以上"},{"no":24,"name":"佐野耳鼻咽喉科","zipcode":"013-0061","address":"横手市横手町字四ノ口46-1","tel":"0182-38-8080","yonshu":null,"sanshu":null,"nishu":null,"fukatsupori":null,"mr":null,"matan":null,"futan":null,"nihonnouen":null,"bcg":null,"hib":null,"shohaikyu":null,"hpv":null,"suito":null,"bkan":null,"rota":null,"infu":"○","kohaien":"○","note":""},{"no":25,"name":"ツインクリニック内科・整形外科","zipcode":"013-0061","address":"横手市横手町字大関越166-1","tel":"0182-35-2235","yonshu":null,"sanshu":null,"nishu":"○","fukatsupori":null,"mr":"○","matan":"○","futan":"○","nihonnouen":"○","bcg":null,"hib":null,"shohaikyu":null,"hpv":"○","suito":"○","bkan":"○","rota":null,"infu":"○","kohaien":"○","note":""},{"no":26,"name":"伊藤小児科・内科医院","zipcode":"013-0063","address":"横手市婦気大堤字谷地添5-1","tel":"0182-23-8615","yonshu":"○","sanshu":"○","nishu":"○","fukatsupori":"○","mr":"○","matan":"○","futan":"○","nihonnouen":"○","bcg":"○","hib":"○","shohaikyu":"○","hpv":"○","suito":"○","bkan":"○","rota":"○","infu":"○","kohaien":"○","note":""},{"no":27,"name":"和賀胃腸科内科医院","zipcode":"013-0063","address":"横手市婦気大堤字谷地添126","tel":"0182-33-7533","yonshu":null,"sanshu":null,"nishu":null,"fukatsupori":null,"mr":"○","matan":"○","futan":"○","nihonnouen":null,"bcg":null,"hib":null,"shohaikyu":null,"hpv":null,"suito":null,"bkan":"○","rota":null,"infu":"○","kohaien":"○","note":""},{"no":28,"name":"胃腸科内科高橋クリニック","zipcode":"013-0064","address":"横手市赤坂自大道添79-3","tel":"0182-36-2711","yonshu":null,"sanshu":null,"nishu":null,"fukatsupori":null,"mr":null,"matan":null,"futan":null,"nihonnouen":null,"bcg":null,"hib":null,"shohaikyu":null,"hpv":"○","suito":null,"bkan":null,"rota":null,"infu":"○","kohaien":"○","note":""},{"no":29,"name":"梅の木ペインクリニック","zipcode":"013-0068","address":"横手市梅の木町18の9","tel":"0182-35-6700","yonshu":null,"sanshu":null,"nishu":null,"fukatsupori":null,"mr":null,"matan":null,"futan":"○","nihonnouen":null,"bcg":null,"hib":null,"shohaikyu":null,"hpv":null,"suito":null,"bkan":null,"rota":null,"infu":"○","kohaien":null,"note":""},{"no":30,"name":"醍醐クリニック","zipcode":"013-0102","address":"横手市平鹿町醍醐字石成25-1","tel":"0182-25-3090","yonshu":"○","sanshu":"○","nishu":"○","fukatsupori":"○","mr":"○","matan":"○","futan":"○","nihonnouen":"○","bcg":"○","hib":"○","shohaikyu":"○","hpv":"○","suito":"○","bkan":"○","rota":"○","infu":"○","kohaien":"○","note":""},{"no":31,"name":"社会福祉法人　平鹿悠真会","zipcode":"013-0105","address":"横手市平鹿町浅舞自新堀146","tel":"0182-23-5252","yonshu":null,"sanshu":null,"nishu":null,"fukatsupori":null,"mr":null,"matan":null,"futan":null,"nihonnouen":null,"bcg":null,"hib":null,"shohaikyu":null,"hpv":null,"suito":null,"bkan":"○","rota":null,"infu":"○","kohaien":"○","note":""},{"no":32,"name":"西成医院","zipcode":"013-0105","address":"横手市平鹿町浅舞字浅舞53","tel":"0182-24-1023","yonshu":"○","sanshu":"○","nishu":"○","fukatsupori":"○","mr":"○","matan":"○","futan":"○","nihonnouen":"○","bcg":"○","hib":"○","shohaikyu":"○","hpv":"○","suito":"○","bkan":"○","rota":"○","infu":"○","kohaien":"○","note":""},{"no":33,"name":"山﨑医院","zipcode":"013-0105","address":"横手市平鹿町浅舞字浅舞205-1","tel":"0182-24-1009","yonshu":"○","sanshu":"○","nishu":"○","fukatsupori":"○","mr":"○","matan":"○","futan":"○","nihonnouen":"○","bcg":"○","hib":"○","shohaikyu":"○","hpv":"○","suito":"○","bkan":"○","rota":null,"infu":"○","kohaien":"○","note":""},{"no":34,"name":"医療法人平鹿浩仁会　西風苑","zipcode":"013-0105 ","address":"横手市平鹿町浅舞字新堀91","tel":"0182-24-3033","yonshu":null,"sanshu":null,"nishu":null,"fukatsupori":null,"mr":null,"matan":null,"futan":null,"nihonnouen":null,"bcg":null,"hib":null,"shohaikyu":null,"hpv":null,"suito":null,"bkan":"○","rota":null,"infu":"○","kohaien":null,"note":""},{"no":35,"name":"雄物川クリニック","zipcode":"013-0205","address":"横手市雄物川町今宿棒突44-1","tel":"0182-22-5511","yonshu":"○","sanshu":null,"nishu":"○","fukatsupori":null,"mr":"○","matan":null,"futan":null,"nihonnouen":"○","bcg":"○","hib":"○","shohaikyu":"○","hpv":"○","suito":"○","bkan":"○","rota":"○","infu":"○","kohaien":"○","note":""},{"no":36,"name":"中川医院","zipcode":"013-0205","address":"横手市雄物川町今宿棒突29-3","tel":"0182-22-2047","yonshu":"○","sanshu":"○","nishu":"○","fukatsupori":"○","mr":"○","matan":"○","futan":"○","nihonnouen":"○","bcg":"○","hib":null,"shohaikyu":null,"hpv":null,"suito":"○","bkan":null,"rota":null,"infu":"○","kohaien":"○","note":""},{"no":37,"name":"特別介護老人ホーム雄水苑","zipcode":"013-0205 ","address":"横手市雄物川町今宿末館50番地","tel":"0182-22-4561","yonshu":null,"sanshu":null,"nishu":null,"fukatsupori":null,"mr":null,"matan":null,"futan":null,"nihonnouen":null,"bcg":null,"hib":null,"shohaikyu":null,"hpv":null,"suito":null,"bkan":null,"rota":null,"infu":"○","kohaien":"○","note":""},{"no":38,"name":"佐々木医院分院","zipcode":"013-0208","address":"横手市雄物川町沼館字宮の目183-1","tel":"0182-22-5557","yonshu":"○","sanshu":"○","nishu":"○","fukatsupori":"○","mr":"○","matan":"○","futan":"○","nihonnouen":"○","bcg":null,"hib":null,"shohaikyu":null,"hpv":"○","suito":"○","bkan":"○","rota":null,"infu":"○","kohaien":"○","note":""},{"no":39,"name":"渡邊医院","zipcode":"013-0325","address":"横手市大雄字田根森東94-3","tel":"0182-52-3108","yonshu":null,"sanshu":"○","nishu":"○","fukatsupori":null,"mr":"○","matan":"○","futan":"○","nihonnouen":"○","bcg":null,"hib":null,"shohaikyu":null,"hpv":"○","suito":"○","bkan":null,"rota":null,"infu":"○","kohaien":"○","note":""},{"no":40,"name":"下田医院","zipcode":"013-0427","address":"横手市大雄字阿気5-1","tel":"0182-52-2634","yonshu":null,"sanshu":null,"nishu":null,"fukatsupori":null,"mr":"○","matan":"○","futan":"○","nihonnouen":"○","bcg":null,"hib":null,"shohaikyu":null,"hpv":"○","suito":null,"bkan":null,"rota":null,"infu":"○","kohaien":"○","note":""},{"no":41,"name":"曽根医院","zipcode":"013-0502","address":"横手市大森町袴形字西神成7-2","tel":"0182-56-4111","yonshu":"○","sanshu":null,"nishu":"○","fukatsupori":"○","mr":"○","matan":null,"futan":null,"nihonnouen":"○","bcg":"○","hib":"○","shohaikyu":"○","hpv":"○","suito":"○","bkan":"○","rota":"○","infu":"○","kohaien":"○","note":""},{"no":42,"name":"沢口内科医院","zipcode":"013-0814","address":"横手市金沢中野字根小屋165-29","tel":"0182-56-6060","yonshu":"○","sanshu":"○","nishu":"○","fukatsupori":"○","mr":"○","matan":"○","futan":"○","nihonnouen":"○","bcg":"○","hib":"○","shohaikyu":null,"hpv":null,"suito":"○","bkan":"○","rota":null,"infu":"○","kohaien":"○","note":""},{"no":43,"name":"社会福祉法人相和会\n横手市特別養護老人ホーム　ビハーラ横手","zipcode":"013-0821","address":"横手市上境字谷地中139番地","tel":"0182-35-6021","yonshu":null,"sanshu":null,"nishu":null,"fukatsupori":null,"mr":null,"matan":null,"futan":null,"nihonnouen":null,"bcg":null,"hib":null,"shohaikyu":null,"hpv":null,"suito":null,"bkan":null,"rota":null,"infu":"○","kohaien":"○","note":""},{"no":44,"name":"市立横手病院","zipcode":"013-8602","address":"横手市根岸町5-31","tel":"0182-32-5001","yonshu":"○","sanshu":"○","nishu":"○","fukatsupori":"○","mr":"○","matan":"○","futan":"○","nihonnouen":"○","bcg":"○","hib":"○","shohaikyu":"○","hpv":"○","suito":"○","bkan":"○","rota":"○","infu":"○","kohaien":"○","note":""},{"no":45,"name":"横手興生病院","zipcode":"013-8602","address":"横手市根岸町8-21","tel":"0182-32-2071","yonshu":null,"sanshu":null,"nishu":null,"fukatsupori":null,"mr":null,"matan":null,"futan":null,"nihonnouen":null,"bcg":null,"hib":null,"shohaikyu":null,"hpv":null,"suito":null,"bkan":null,"rota":null,"infu":"○","kohaien":"○","note":""},{"no":46,"name":"平鹿総合病院","zipcode":"013-8610","address":"横手市前郷字八ツ口3番1","tel":"0182-32-5121","yonshu":"○","sanshu":"○","nishu":"○","fukatsupori":"○","mr":"○","matan":"○","futan":"○","nihonnouen":"○","bcg":"○","hib":"○","shohaikyu":"○","hpv":"○","suito":"○","bkan":"○","rota":"○","infu":"○","kohaien":"○","note":""},{"no":47,"name":"阿部耳鼻咽喉科医院","zipcode":"019-0502","address":"横手市十文字町西原2番町1-4","tel":"0182-42-3341","yonshu":null,"sanshu":null,"nishu":null,"fukatsupori":null,"mr":null,"matan":null,"futan":null,"nihonnouen":null,"bcg":null,"hib":null,"shohaikyu":null,"hpv":null,"suito":"○","bkan":null,"rota":null,"infu":"○","kohaien":"○","note":""},{"no":48,"name":"岡田小児科医院","zipcode":"019-0503","address":"横手市十文字町西原1番町51-2","tel":"0182-55-2110","yonshu":"○","sanshu":"○","nishu":"○","fukatsupori":"○","mr":"○","matan":"○","futan":"○","nihonnouen":"○","bcg":"○","hib":"○","shohaikyu":"○","hpv":"○","suito":"○","bkan":"○","rota":"○","infu":"○","kohaien":"○","note":""},{"no":49,"name":"聖愛内科胃腸科クリニック","zipcode":"019-0505","address":"横手市十文字町仁井田字東37-2","tel":"0182-42-2233","yonshu":null,"sanshu":null,"nishu":"○","fukatsupori":null,"mr":"○","matan":"○","futan":"○","nihonnouen":"○","bcg":null,"hib":null,"shohaikyu":null,"hpv":null,"suito":null,"bkan":null,"rota":null,"infu":"○","kohaien":"○","note":""},{"no":50,"name":"髙橋医院","zipcode":"019-0505","address":"横手市十文字町仁井田字東55-3","tel":"0182-42-0421","yonshu":null,"sanshu":null,"nishu":null,"fukatsupori":null,"mr":"○","matan":null,"futan":null,"nihonnouen":"○","bcg":null,"hib":null,"shohaikyu":null,"hpv":null,"suito":null,"bkan":null,"rota":null,"infu":"○","kohaien":"○","note":""},{"no":51,"name":"渡部医院","zipcode":"019-0506","address":"横手市十文字町佐賀会下沖田17-2","tel":"0182-42-0286","yonshu":null,"sanshu":null,"nishu":null,"fukatsupori":null,"mr":"○","matan":"○","futan":"○","nihonnouen":"○","bcg":null,"hib":null,"shohaikyu":null,"hpv":"○","suito":null,"bkan":"○","rota":null,"infu":"○","kohaien":"○","note":""},{"no":52,"name":"井田内科胃腸科医院","zipcode":"019-0529","address":"横手市十文字町字海道下121-4","tel":"0182-42-0066","yonshu":null,"sanshu":null,"nishu":null,"fukatsupori":null,"mr":"○","matan":null,"futan":null,"nihonnouen":"○","bcg":null,"hib":null,"shohaikyu":null,"hpv":null,"suito":null,"bkan":null,"rota":null,"infu":"○","kohaien":"○","note":"小学生以上"},{"no":53,"name":"下田内科消化器科医院","zipcode":"019-0701","address":"横手市増田町増田字石神55-2","tel":"0182-45-5800","yonshu":null,"sanshu":null,"nishu":"○","fukatsupori":null,"mr":"○","matan":null,"futan":null,"nihonnouen":"○","bcg":null,"hib":null,"shohaikyu":null,"hpv":"○","suito":"○","bkan":"○","rota":null,"infu":"○","kohaien":"○","note":""},{"no":54,"name":"桃雲堂高橋医院","zipcode":"019-0701","address":"横手市増田町増田字本町49-1","tel":"0182-45-2363","yonshu":"○","sanshu":"○","nishu":"○","fukatsupori":"○","mr":"○","matan":"○","futan":"○","nihonnouen":"○","bcg":null,"hib":"○","shohaikyu":"○","hpv":"○","suito":"○","bkan":null,"rota":null,"infu":"○","kohaien":"○","note":""},{"no":55,"name":"横手市特別養護老人ホーム\nシルバードームいきいきの郷","zipcode":"019-0701","address":"横手市増田町増田七日町177","tel":"0182-45-4411","yonshu":null,"sanshu":null,"nishu":null,"fukatsupori":null,"mr":null,"matan":null,"futan":null,"nihonnouen":null,"bcg":null,"hib":null,"shohaikyu":null,"hpv":null,"suito":null,"bkan":null,"rota":null,"infu":"○","kohaien":"○","note":""},{"no":56,"name":"山内診療所","zipcode":"019-1106","address":"横手市山内平野沢字相野々3-1","tel":"0182-53-2211","yonshu":null,"sanshu":null,"nishu":null,"fukatsupori":null,"mr":"○","matan":"○","futan":"○","nihonnouen":"○","bcg":null,"hib":null,"shohaikyu":"○","hpv":"○","suito":"○","bkan":null,"rota":null,"infu":"○","kohaien":"○","note":""},{"no":57,"name":"社会福祉法人相和会\n横手市特別養護老人ホーム　鶴寿苑","zipcode":"019-1108","address":"横手市三内土渕字鶴ヶ池31-3","tel":"0182-53-2300","yonshu":null,"sanshu":null,"nishu":null,"fukatsupori":null,"mr":null,"matan":null,"futan":null,"nihonnouen":null,"bcg":null,"hib":null,"shohaikyu":null,"hpv":null,"suito":null,"bkan":null,"rota":null,"infu":"○","kohaien":null,"note":""},{"no":58,"name":"さわぐちクリニック","zipcode":"013-0061","address":"横手市横手町字四ノ口58-1","tel":"0182-23-7830","yonshu":null,"sanshu":null,"nishu":null,"fukatsupori":null,"mr":"○","matan":null,"futan":null,"nihonnouen":null,"bcg":null,"hib":null,"shohaikyu":null,"hpv":null,"suito":null,"bkan":null,"rota":null,"infu":"○","kohaien":"○","note":""},{"no":59,"name":"市立大森病院","zipcode":"013-0525","address":"横手市大森町字菅生田245-205","tel":"0182-26-2141","yonshu":"○","sanshu":"○","nishu":"○","fukatsupori":"○","mr":"○","matan":null,"futan":null,"nihonnouen":"○","bcg":"○","hib":"○","shohaikyu":"○","hpv":"○","suito":"○","bkan":"○","rota":"○","infu":null,"kohaien":null,"note":"日中小児科で対応。月水金。"},{"no":60,"name":"横手市特別養護老人ホーム　白寿園","zipcode":"013-0525","address":"横手市大森町字菅生田245-27","tel":"0182-26-3000","yonshu":null,"sanshu":null,"nishu":null,"fukatsupori":null,"mr":null,"matan":null,"futan":null,"nihonnouen":null,"bcg":null,"hib":null,"shohaikyu":null,"hpv":null,"suito":null,"bkan":null,"rota":null,"infu":"○","kohaien":null,"note":""},{"no":61,"name":"介護老人保健施設昭平苑","zipcode":"012-0006","address":"湯沢市柳田字中嶋227番地の1","tel":"0183-72-1117","yonshu":null,"sanshu":null,"nishu":null,"fukatsupori":null,"mr":null,"matan":null,"futan":null,"nihonnouen":null,"bcg":null,"hib":null,"shohaikyu":null,"hpv":null,"suito":null,"bkan":null,"rota":null,"infu":"○","kohaien":"○","note":""},{"no":62,"name":"医療法人尚仁会\n松田記念泌尿器科クリニック","zipcode":"012-0011","address":"湯沢市森字大島34の1","tel":"0183-72-2711","yonshu":null,"sanshu":null,"nishu":null,"fukatsupori":null,"mr":null,"matan":null,"futan":null,"nihonnouen":null,"bcg":null,"hib":null,"shohaikyu":null,"hpv":null,"suito":null,"bkan":null,"rota":null,"infu":"○","kohaien":"○","note":""},{"no":63,"name":"たかはし内科\nひだまりクリニック","zipcode":"012-0026","address":"湯沢市字大島89の2","tel":"0183-73-6776","yonshu":"○","sanshu":"○","nishu":"○","fukatsupori":"○","mr":"○","matan":"○","futan":"○","nihonnouen":null,"bcg":null,"hib":null,"shohaikyu":"○","hpv":"○","suito":"○","bkan":"○","rota":"○","infu":"○","kohaien":"○","note":""},{"no":64,"name":"池田産婦人科クリニック","zipcode":"012-0036","address":"湯沢市字両神142の3","tel":"0183-72-1771","yonshu":null,"sanshu":null,"nishu":null,"fukatsupori":null,"mr":null,"matan":null,"futan":"○","nihonnouen":null,"bcg":null,"hib":null,"shohaikyu":null,"hpv":"○","suito":null,"bkan":null,"rota":null,"infu":"○","kohaien":null,"note":""},{"no":65,"name":"佐藤外科胃腸科","zipcode":"012-0037","address":"湯沢市字沖鶴167の2","tel":"0183-73-7100","yonshu":"○","sanshu":"○","nishu":"○","fukatsupori":null,"mr":"○","matan":"○","futan":"○","nihonnouen":"○","bcg":null,"hib":"○","shohaikyu":"○","hpv":"○","suito":"○","bkan":"○","rota":null,"infu":"○","kohaien":"○","note":"診療時間内"},{"no":66,"name":"湯沢内科循環器科クリニツク","zipcode":"012-0037","address":"湯沢市字沖鶴215-1","tel":"0183-72-1112","yonshu":null,"sanshu":null,"nishu":null,"fukatsupori":null,"mr":null,"matan":null,"futan":null,"nihonnouen":null,"bcg":null,"hib":null,"shohaikyu":null,"hpv":null,"suito":null,"bkan":null,"rota":null,"infu":"○","kohaien":"○","note":""},{"no":67,"name":"大沼整形外科クリニック","zipcode":"012-0041","address":"湯沢市字中野182-1","tel":"0183-73-8007","yonshu":null,"sanshu":null,"nishu":null,"fukatsupori":null,"mr":null,"matan":null,"futan":null,"nihonnouen":null,"bcg":null,"hib":null,"shohaikyu":null,"hpv":null,"suito":null,"bkan":null,"rota":null,"infu":"○","kohaien":null,"note":""},{"no":68,"name":"後藤医院","zipcode":"012-0041","address":"湯沢市字中野181の1","tel":"0183-56-7300","yonshu":null,"sanshu":null,"nishu":"○","fukatsupori":null,"mr":"○","matan":"○","futan":"○","nihonnouen":"○","bcg":null,"hib":null,"shohaikyu":null,"hpv":"○","suito":"○","bkan":"○","rota":null,"infu":"○","kohaien":"○","note":"小児を除く"},{"no":69,"name":"雄勝中央病院","zipcode":"012-0055","address":"湯沢市山田字勇ヶ岡25","tel":"0183-73-5000","yonshu":"○","sanshu":"○","nishu":"○","fukatsupori":"○","mr":"○","matan":"○","futan":"○","nihonnouen":"○","bcg":"○","hib":"○","shohaikyu":"○","hpv":"○","suito":"○","bkan":"○","rota":"○","infu":"○","kohaien":"○","note":""},{"no":70,"name":"七山医院","zipcode":"012-0105","address":"湯沢市川連町字野村21の2","tel":"0183-42-2411","yonshu":null,"sanshu":null,"nishu":null,"fukatsupori":null,"mr":"○","matan":"○","futan":"○","nihonnouen":null,"bcg":"○","hib":"○","shohaikyu":"○","hpv":"○","suito":"○","bkan":null,"rota":null,"infu":"○","kohaien":"○","note":""},{"no":71,"name":"菅クリニック","zipcode":"012-0106","address":"湯沢市三梨町字下宿58の1","tel":"0183-78-5500","yonshu":"○","sanshu":"○","nishu":"○","fukatsupori":"○","mr":"○","matan":null,"futan":null,"nihonnouen":null,"bcg":null,"hib":null,"shohaikyu":null,"hpv":"○","suito":null,"bkan":null,"rota":null,"infu":"○","kohaien":"○","note":""},{"no":72,"name":"湯沢市立皆瀬診療所","zipcode":"012-0183","address":"湯沢市皆瀬字下菅生10","tel":"0183-46-2226","yonshu":"○","sanshu":"○","nishu":"○","fukatsupori":"○","mr":"○","matan":"○","futan":"○","nihonnouen":"○","bcg":"○","hib":"○","shohaikyu":"○","hpv":"○","suito":"○","bkan":"○","rota":"○","infu":"○","kohaien":"○","note":""},{"no":73,"name":"鈴木一郎医院","zipcode":"012-0813","address":"湯沢市前森3-3-18","tel":"0183-72-6868","yonshu":"○","sanshu":"○","nishu":"○","fukatsupori":"○","mr":"○","matan":"○","futan":"○","nihonnouen":"○","bcg":"○","hib":"○","shohaikyu":"○","hpv":null,"suito":"○","bkan":"○","rota":null,"infu":"○","kohaien":"○","note":""},{"no":74,"name":"守口耳鼻咽喉科医院","zipcode":"012-0824","address":"湯沢市佐竹町5-23","tel":"0183-72-5546","yonshu":null,"sanshu":null,"nishu":null,"fukatsupori":null,"mr":null,"matan":null,"futan":null,"nihonnouen":null,"bcg":null,"hib":null,"shohaikyu":null,"hpv":null,"suito":null,"bkan":null,"rota":null,"infu":"○","kohaien":"○","note":""},{"no":75,"name":"湯沢医院","zipcode":"012-0824","address":"湯沢市佐竹町3-22","tel":"0183-73-2005","yonshu":null,"sanshu":null,"nishu":null,"fukatsupori":null,"mr":null,"matan":null,"futan":null,"nihonnouen":null,"bcg":null,"hib":null,"shohaikyu":null,"hpv":null,"suito":null,"bkan":null,"rota":null,"infu":"○","kohaien":"○","note":""},{"no":76,"name":"まつした医院","zipcode":"012-0825","address":"湯沢市北荒町3の1","tel":"0183-73-2074","yonshu":"○","sanshu":null,"nishu":"○","fukatsupori":"○","mr":"○","matan":"○","futan":"○","nihonnouen":"○","bcg":"○","hib":"○","shohaikyu":"○","hpv":"○","suito":"○","bkan":"○","rota":"○","infu":"○","kohaien":"○","note":""},{"no":77,"name":"秋山クリニック","zipcode":"012-0827","address":"湯沢市表町四丁目11の16","tel":"0183-72-1735","yonshu":null,"sanshu":null,"nishu":null,"fukatsupori":null,"mr":"○","matan":"○","futan":"○","nihonnouen":null,"bcg":null,"hib":null,"shohaikyu":null,"hpv":"○","suito":"○","bkan":null,"rota":null,"infu":"○","kohaien":"○","note":""},{"no":78,"name":"石岡胃腸科クリニック","zipcode":"012-0827","address":"湯沢市表町四丁目10の26","tel":"0183-73-1100","yonshu":"○","sanshu":"○","nishu":"○","fukatsupori":null,"mr":"○","matan":"○","futan":"○","nihonnouen":"○","bcg":"○","hib":"○","shohaikyu":"○","hpv":null,"suito":"○","bkan":"○","rota":"○","infu":"○","kohaien":"○","note":""},{"no":79,"name":"小野崎医院","zipcode":"012-0827","address":"湯沢市表町三丁目1の29","tel":"0183-73-2540","yonshu":null,"sanshu":"○","nishu":"○","fukatsupori":null,"mr":"○","matan":null,"futan":"○","nihonnouen":"○","bcg":null,"hib":null,"shohaikyu":null,"hpv":"○","suito":"○","bkan":null,"rota":null,"infu":"○","kohaien":"○","note":""},{"no":80,"name":"山本内科医院","zipcode":"012-0827","address":"湯沢市表町2丁目3の7","tel":"0183-78-0220","yonshu":null,"sanshu":null,"nishu":null,"fukatsupori":null,"mr":"○","matan":"○","futan":"○","nihonnouen":null,"bcg":null,"hib":null,"shohaikyu":null,"hpv":"○","suito":null,"bkan":null,"rota":null,"infu":"○","kohaien":"○","note":""},{"no":81,"name":"渡部外科内科","zipcode":"012-0842","address":"湯沢市字内舘町25","tel":"0183-73-1130","yonshu":null,"sanshu":null,"nishu":null,"fukatsupori":null,"mr":null,"matan":null,"futan":null,"nihonnouen":null,"bcg":null,"hib":null,"shohaikyu":null,"hpv":null,"suito":null,"bkan":null,"rota":null,"infu":"○","kohaien":"○","note":""},{"no":82,"name":"小川医院","zipcode":"012-0844","address":"湯沢市田町二丁目1の９","tel":"0183-73-2300","yonshu":null,"sanshu":null,"nishu":"○","fukatsupori":null,"mr":"○","matan":"○","futan":"○","nihonnouen":"○","bcg":"○","hib":null,"shohaikyu":null,"hpv":"○","suito":"○","bkan":null,"rota":null,"infu":"○","kohaien":"○","note":""},{"no":83,"name":"斉藤内科皮膚科","zipcode":"012-0855","address":"湯沢市愛宕町三丁目11-37","tel":"0183-73-8833","yonshu":null,"sanshu":null,"nishu":null,"fukatsupori":null,"mr":null,"matan":null,"futan":null,"nihonnouen":null,"bcg":null,"hib":null,"shohaikyu":null,"hpv":null,"suito":null,"bkan":"○","rota":"○","infu":"○","kohaien":"○","note":""},{"no":84,"name":"髙橋胃腸科クリニック","zipcode":"012-0857","address":"湯沢市千石町二丁目1の7","tel":"0183-79-5355","yonshu":"○","sanshu":"○","nishu":"○","fukatsupori":null,"mr":"○","matan":null,"futan":null,"nihonnouen":"○","bcg":null,"hib":null,"shohaikyu":null,"hpv":null,"suito":"○","bkan":null,"rota":null,"infu":"○","kohaien":"○","note":""},{"no":85,"name":"みわ内科クリニック","zipcode":"012-1123","address":"羽後町貝沢字稲荷23の9","tel":"0183-62-1200","yonshu":"○","sanshu":"○","nishu":"○","fukatsupori":null,"mr":"○","matan":"○","futan":"○","nihonnouen":"○","bcg":"○","hib":null,"shohaikyu":null,"hpv":null,"suito":"○","bkan":null,"rota":null,"infu":"○","kohaien":"○","note":""},{"no":86,"name":"羽後町立羽後病院","zipcode":"012-1131","address":"羽後町西馬音内字大戸道44の5","tel":"0183-62-1111","yonshu":"○","sanshu":"○","nishu":"○","fukatsupori":"○","mr":"○","matan":"○","futan":"○","nihonnouen":"○","bcg":"○","hib":"○","shohaikyu":"○","hpv":"○","suito":"○","bkan":"○","rota":"○","infu":"○","kohaien":"○","note":""},{"no":87,"name":"神馬医院","zipcode":"012-1131","address":"羽後町西馬音内字中野131","tel":"0183-62-5588","yonshu":"○","sanshu":null,"nishu":"○","fukatsupori":"○","mr":"○","matan":"○","futan":"○","nihonnouen":"○","bcg":"○","hib":null,"shohaikyu":null,"hpv":null,"suito":"○","bkan":"○","rota":"○","infu":"○","kohaien":"○","note":""},{"no":88,"name":"特別養護老人ホームひまわり苑","zipcode":"012-1131","address":"雄勝郡羽後町西馬音内字中野19−39","tel":"0183-62-5771","yonshu":null,"sanshu":null,"nishu":null,"fukatsupori":null,"mr":null,"matan":null,"futan":null,"nihonnouen":null,"bcg":null,"hib":null,"shohaikyu":null,"hpv":null,"suito":null,"bkan":null,"rota":null,"infu":"○","kohaien":"○","note":""},{"no":89,"name":"介護老人保健施設　照隅苑","zipcode":"012-1136","address":"羽後町床舞字軽内198-1","tel":"0183-78-7200","yonshu":null,"sanshu":null,"nishu":null,"fukatsupori":null,"mr":null,"matan":null,"futan":null,"nihonnouen":null,"bcg":null,"hib":null,"shohaikyu":null,"hpv":null,"suito":null,"bkan":null,"rota":null,"infu":"○","kohaien":"○","note":""},{"no":90,"name":"介護老人保健施設\nゆーとぴあ神室","zipcode":"019-0205","address":"湯沢市小野字東堺76","tel":"0183-52-5111","yonshu":null,"sanshu":null,"nishu":null,"fukatsupori":null,"mr":null,"matan":null,"futan":null,"nihonnouen":null,"bcg":null,"hib":null,"shohaikyu":null,"hpv":null,"suito":null,"bkan":null,"rota":null,"infu":"○","kohaien":null,"note":""},{"no":91,"name":"菅　医院","zipcode":"019-0205","address":"湯沢市小野字東堺77の1","tel":"0183-52-2000","yonshu":"○","sanshu":"○","nishu":"○","fukatsupori":"○","mr":"○","matan":"○","futan":"○","nihonnouen":"○","bcg":"○","hib":"○","shohaikyu":"○","hpv":"○","suito":"○","bkan":"○","rota":null,"infu":"○","kohaien":"○","note":""},{"no":92,"name":"東成瀬村国民健康保険診療所","zipcode":"019-0801","address":"東成瀬村田子内字仙人下11－3","tel":"0182⁻47₋2308","yonshu":null,"sanshu":null,"nishu":null,"fukatsupori":null,"mr":null,"matan":null,"futan":null,"nihonnouen":null,"bcg":null,"hib":null,"shohaikyu":null,"hpv":null,"suito":"○","bkan":null,"rota":"○","infu":"○","kohaien":"○","note":""},{"no":93,"name":"たけうち内科クリニック","zipcode":"012-1100","address":"雄勝郡羽後町字南西馬音内142-3","tel":"0183-56-7879","yonshu":"○","sanshu":"○","nishu":"○","fukatsupori":"○","mr":"○","matan":"○","futan":"○","nihonnouen":"○","bcg":"○","hib":"○","shohaikyu":"○","hpv":"○","suito":"○","bkan":"○","rota":"○","infu":"○","kohaien":"○","note":""}]}