{
  "origin": "https://www.city-yuzawa.jp/uploaded/attachment/12573.xlsx",
  "source": "Data by 湯沢市 - 相談支援事業所(障がい児・者) / クリエイティブ・コモンズ 表示 4.1日本",
  "header": {
    "name": "名称",
    "zipcode": "所在地",
    "address": "所在地",
    "tel": "電話・FAX",
    "fax": "電話・FAX"
  },
  "data": [
    {
      "name": "地域活動支援センター　松風",
      "zipcode": "〒012-0055",
      "address": "湯沢市山田字中屋敷１５番地１",
      "tel": "TEL　0183-72-5855",
      "fax": "FAX　0183-78-0067"
    },
    {
      "name": "ぱあとなあ　相談支援事業所",
      "zipcode": "〒012-0036",
      "address": "湯沢市字両神15番地１",
      "tel": "TEL　0183-55-8678",
      "fax": "FAX　0183-72-5644"
    },
    {
      "name": "愛光園　相談支援事業所",
      "zipcode": "〒019-0203",
      "address": "湯沢市寺沢段の上４番地５",
      "tel": "TEL　 0183-52-4313",
      "fax": " FAX　0183-52-4314"
    },
    {
      "name": "やまばと園　相談支援事業所",
      "zipcode": "〒012-0106",
      "address": "湯沢市三梨町字飯田二ツ森４３番地",
      "tel": "TEL　 0183-42-2141",
      "fax": "FAX　 0183-42-4709"
    },
    {
      "name": "カメラーデン　相談支援事業所",
      "zipcode": "〒012-0183",
      "address": "湯沢市皆瀬字桜坂１７番",
      "tel": "TEL　 0183-46-2064",
      "fax": " FAX　0183-46-2677"
    },
    {
      "name": "指定相談支援事業所　ワークセンターゆざわ",
      "zipcode": "〒012-0813",
      "address": "湯沢市前森三丁目３番４号",
      "tel": " TEL　 0183-73-2644",
      "fax": " FAX　0183-55-8388"
    },
    {
      "name": "皆瀬更生園　指定特定相談事業所",
      "zipcode": "〒012-0183",
      "address": "湯沢市皆瀬字上小保内6番地",
      "tel": "TEL　 0183-46-2729",
      "fax": "FAX  0183-46-2055"
    },
    {
      "name": "ひだまり　相談支援事業所",
      "zipcode": "〒012-0803",
      "address": "湯沢市杉沢新所字砂田４番地１",
      "tel": "TEL　 0183-56-5045",
      "fax": " FAX　0183-55-8021"
    },
    {
      "name": "みらいの家　相談支援事業所",
      "zipcode": "〒012-0105",
      "address": "湯沢市川連町字大舘川原１１９番２",
      "tel": "TEL　 0183-56-6156",
      "fax": " FAX　0183-56-6157"
    }
  ]
}